NORAD_CAT_ID,OBJECT_NAME,OBJECT_TYPE,EPOCH,MEAN_MOTION,ECCENTRICITY,INCLINATION,RA_OF_ASC_NODE,ARG_OF_PERICENTER,MEAN_ANOMALY,BSTAR,MEAN_MOTION_DOT,MEAN_MOTION_DDOT,TLE_LINE0,TLE_LINE1,TLE_LINE2,SEMIMAJOR_AXIS,PERIOD,APOGEE,PERIGEE,DECAYED
53619.0,STARLINK-4609,PAYLOAD,2023-09-15 10:47:40,15.08842462,0.0001595,53.2178,342.3848,75.5165,284.6003,0.00061027,9.438e-05,0.0,0 STARLINK-4609,1 53619U 22104AH  23258.44977605  .00009438  00000-0  61027-3 0  9998,2 53619  53.2178 342.3848 0001595  75.5165 284.6003 15.08842462 58256,6917.873,95.437,540.841,538.634,0.0
53619.0,STARLINK-4609,PAYLOAD,2023-09-15 12:23:04,15.08843304,0.0001525,53.2182,342.087,73.4012,286.7148,0.0010515,0.00016488,0.0,0 STARLINK-4609,1 53619U 22104AH  23258.51601885  .00016488  00000-0  10515-2 0  9998,2 53619  53.2182 342.0870 0001525  73.4012 286.7148 15.08843304 58837,6917.87,95.437,540.79,538.68,0.0
53619.0,STARLINK-4609,PAYLOAD,2023-09-16 10:38:27,15.08856703,0.0001609,53.2182,337.9242,72.5666,287.5502,0.00050673,7.789e-05,0.0,0 STARLINK-4609,1 53619U 22104AH  23259.44337289  .00007789  00000-0  50673-3 0  9999,2 53619  53.2182 337.9242 0001609  72.5666 287.5502 15.08856703 58976,6917.829,95.436,540.807,538.581,0.0
53619.0,STARLINK-4609,PAYLOAD,2023-09-16 15:24:36,15.08860619,0.0001579,53.2179,337.0321,73.4441,286.6725,0.00057208,8.833e-05,0.0,0 STARLINK-4609,1 53619U 22104AH  23259.64209028  .00008833  00000-0  57208-3 0  9992,2 53619  53.2179 337.0321 0001579  73.4441 286.6725 15.08860619 58437,6917.817,95.436,540.775,538.59,0.0
53619.0,STARLINK-4609,PAYLOAD,2023-09-16 21:46:09,15.08852588,0.0001654,53.2176,335.8394,62.0674,298.0486,0.00022051,3.224e-05,0.0,0 STARLINK-4609,1 53619U 22104AH  23259.90705004  .00003224  00000-0  22051-3 0  9993,2 53619  53.2176 335.8394 0001654  62.0674 298.0486 15.08852588 58477,6917.842,95.437,540.851,538.563,0.0
53619.0,STARLINK-4609,PAYLOAD,2023-09-17 12:04:36,15.08857935,0.0001609,53.2182,333.1671,76.6625,283.4546,0.00027684,4.123e-05,0.0,0 STARLINK-4609,1 53619U 22104AH  23260.50320583  .00004123  00000-0  27684-3 0  9992,2 53619  53.2182 333.1671 0001609  76.6625 283.4546 15.08857935 59130,6917.826,95.436,540.804,538.577,0.0
53619.0,STARLINK-4609,PAYLOAD,2023-09-17 21:36:55,15.08850584,0.0001644,53.218,331.3824,76.6424,283.4752,0.00013276,1.826e-05,0.0,0 STARLINK-4609,1 53619U 22104AH  23260.90064649  .00001826  00000-0  13276-3 0  9993,2 53619  53.2180 331.3824 0001644  76.6424 283.4752 15.08850584 58629,6917.848,95.437,540.85,538.576,0.0
53619.0,STARLINK-4609,PAYLOAD,2023-09-18 11:55:23,15.0884791,0.0001674,53.2187,328.7066,86.876,273.2423,3.8101e-05,3.18e-06,0.0,0 STARLINK-4609,1 53619U 22104AH  23261.49680446  .00000318  00000-0  38101-4 0  9997,2 53619  53.2187 328.7066 0001674  86.8760 273.2423 15.08847910 59287,6917.856,95.437,540.879,538.563,0.0
53619.0,STARLINK-4609,PAYLOAD,2023-09-18 21:27:42,15.08846444,0.0001698,53.2188,326.9233,85.3214,274.7972,-6.517e-06,-3.92e-06,0.0,0 STARLINK-4609,1 53619U 22104AH  23261.89424420 -.00000392  00000-0 -65170-5 0  9990,2 53619  53.2188 326.9233 0001698  85.3214 274.7972 15.08846444 58777,6917.861,95.437,540.9,538.551,0.0
53619.0,STARLINK-4609,PAYLOAD,2023-09-19 11:46:10,15.08860583,0.0001703,53.2184,324.2467,86.2868,273.8319,3.9611e-05,3.43e-06,0.0,0 STARLINK-4609,1 53619U 22104AH  23262.49039420  .00000343  00000-0  39611-4 0  9993,2 53619  53.2184 324.2467 0001703  86.2868 273.8319 15.08860583 58860,6917.817,95.436,540.861,538.504,0.0
53619.0,STARLINK-4609,PAYLOAD,2023-09-20 11:36:58,15.08827632,0.0001528,53.217,319.7851,73.4779,286.6381,-0.0001272,-2.311e-05,0.0,0 STARLINK-4609,1 53619U 22104AH  23263.48401414 -.00002311  00000-0 -12720-3 0  9999,2 53619  53.2170 319.7851 0001528  73.4779 286.6381 15.08827632 59012,6917.918,95.438,540.84,538.726,0.0
53619.0,STARLINK-4609,PAYLOAD,2023-09-21 09:52:23,15.08838161,0.000174,53.2172,315.6231,75.5101,284.6084,0.00021712,3.169e-05,0.0,0 STARLINK-4609,1 53619U 22104AH  23264.41137755  .00003169  00000-0  21712-3 0  9998,2 53619  53.2172 315.6231 0001740  75.5101 284.6084 15.08838161 59151,6917.886,95.438,540.955,538.547,0.0
53619.0,STARLINK-4609,PAYLOAD,2023-09-21 21:00:04,15.08841162,0.000169,53.2174,313.5403,73.8592,286.2586,0.00030904,4.634e-05,0.0,0 STARLINK-4609,1 53619U 22104AH  23264.87505725  .00004634  00000-0  30904-3 0  9995,2 53619  53.2174 313.5403 0001690  73.8592 286.2586 15.08841162 59790,6917.877,95.437,540.911,538.573,0.0
53619.0,STARLINK-4609,PAYLOAD,2023-09-22 09:43:09,15.08849361,0.0001655,53.2171,311.1617,74.0309,286.0866,0.00041769,6.367e-05,0.0,0 STARLINK-4609,1 53619U 22104AH  23265.40497617  .00006367  00000-0  41769-3 0  9991,2 53619  53.2171 311.1617 0001655  74.0309 286.0866 15.08849361 59875,6917.852,95.437,540.862,538.572,0.0
53619.0,STARLINK-4609,PAYLOAD,2023-09-23 07:58:33,15.08851152,0.000161,53.2172,306.9963,83.2852,276.8324,0.00019376,2.798e-05,0.0,0 STARLINK-4609,1 53619U 22104AH  23266.33233215  .00002798  00000-0  19376-3 0  9999,2 53619  53.2172 306.9963 0001610  83.2852 276.8324 15.08851152 59448,6917.846,95.437,540.825,538.598,0.0
53619.0,STARLINK-4609,PAYLOAD,2023-09-24 03:03:11,15.08841916,0.0001636,53.2165,303.4305,83.2211,276.8967,5.3819e-05,5.69e-06,0.0,0 STARLINK-4609,1 53619U 22104AH  23267.12721485  .00000569  00000-0  53819-4 0  9993,2 53619  53.2165 303.4305 0001636  83.2211 276.8967 15.08841916 59562,6917.875,95.437,540.871,538.608,0.0
53619.0,STARLINK-4609,PAYLOAD,2023-09-24 09:24:43,15.08844012,0.000161,53.2167,302.2412,82.3908,277.7267,3.8479e-05,3.24e-06,0.0,0 STARLINK-4609,1 53619U 22104AH  23267.39217283  .00000324  00000-0  38479-4 0  9992,2 53619  53.2167 302.2412 0001610  82.3908 277.7267 15.08844012 60177,6917.868,95.437,540.847,538.619,0.0
53619.0,STARLINK-4609,PAYLOAD,2023-09-25 09:15:30,15.08844915,0.0001672,53.2175,297.7813,91.9359,268.1824,0.00010782,1.429e-05,0.0,0 STARLINK-4609,1 53619U 22104AH  23268.38577267  .00001429  00000-0  10782-3 0  9996,2 53619  53.2175 297.7813 0001672  91.9359 268.1824 15.08844915 59750,6917.865,95.437,540.887,538.574,0.0
53619.0,STARLINK-4609,PAYLOAD,2023-09-25 18:47:49,15.08844514,0.0001521,53.2161,295.9964,87.2259,272.8908,0.00014948,2.092e-05,0.0,0 STARLINK-4609,1 53619U 22104AH  23268.78321232  .00002092  00000-0  14948-3 0  9994,2 53619  53.2161 295.9964 0001521  87.2259 272.8908 15.08844514 60383,6917.867,95.437,540.784,538.679,0.0
53619.0,STARLINK-4609,PAYLOAD,2023-09-25 23:33:59,15.08837914,0.000129,53.217,295.1074,79.396,280.7178,8.5829e-05,1.078e-05,0.0,0 STARLINK-4609,1 53619U 22104AH  23268.98193585  .00001078  00000-0  85829-4 0  9994,2 53619  53.2170 295.1074 0001290  79.3960 280.7178 15.08837914 59843,6917.887,95.438,540.644,538.859,0.0
53619.0,STARLINK-4609,PAYLOAD,2023-09-26 09:06:18,15.08839459,0.00016,53.2167,293.3223,81.0303,279.087,0.00011921,1.61e-05,0.0,0 STARLINK-4609,1 53619U 22104AH  23269.37937719  .00001610  00000-0  11921-3 0  9996,2 53619  53.2167 293.3223 0001600  81.0303 279.0870 15.08839459 60478,6917.882,95.438,540.854,538.64,0.0
53619.0,STARLINK-4609,PAYLOAD,2023-09-27 01:00:09,15.08839951,0.0001612,53.2168,290.3458,90.2916,269.8261,6.2682e-05,7.1e-06,0.0,0 STARLINK-4609,1 53619U 22104AH  23270.04177866  .00000710  00000-0  62682-4 0  9992,2 53619  53.2168 290.3458 0001612  90.2916 269.8261 15.08839951 60008,6917.881,95.438,540.861,538.63,0.0
53619.0,STARLINK-4609,PAYLOAD,2023-09-27 10:32:28,15.08844592,0.000161,53.2169,288.561,88.7532,271.3645,8.1946e-05,1.017e-05,0.0,0 STARLINK-4609,1 53619U 22104AH  23270.43921535  .00001017  00000-0  81946-4 0  9990,2 53619  53.2169 288.5610 0001610  88.7532 271.3645 15.08844592 60632,6917.866,95.437,540.845,538.618,0.0
53619.0,STARLINK-4609,PAYLOAD,2023-09-28 08:47:53,15.08833762,0.0001475,53.2171,284.393,91.0371,269.079,3.9154e-05,3.35e-06,0.0,0 STARLINK-4609,1 53619U 22104AH  23271.36658572  .00000335  00000-0  39154-4 0  9997,2 53619  53.2171 284.3930 0001475  91.0371 269.0790 15.08833762 60206,6917.899,95.438,540.785,538.744,0.0
53619.0,STARLINK-4609,PAYLOAD,2023-09-29 07:03:16,15.08844388,0.0001628,53.2166,280.2347,84.9954,275.1224,0.00012197,1.654e-05,0.0,0 STARLINK-4609,1 53619U 22104AH  23272.29394117  .00001654  00000-0  12197-3 0  9994,2 53619  53.2166 280.2347 0001628  84.9954 275.1224 15.08844388 60346,6917.867,95.437,540.858,538.606,0.0
53619.0,STARLINK-4609,PAYLOAD,2023-09-30 05:18:40,15.08848317,0.000155,53.2158,276.0724,80.3064,279.8103,0.0001716,2.445e-05,0.0,0 STARLINK-4609,1 53619U 22104AH  23273.22129827  .00002445  00000-0  17160-3 0  9996,2 53619  53.2158 276.0724 0001550  80.3064 279.8103 15.08848317 61057,6917.855,95.437,540.792,538.648,0.0
53619.0,STARLINK-4609,PAYLOAD,2023-09-30 22:47:55,15.08842322,0.0001564,53.2144,272.7997,79.6629,280.4539,8.2068e-06,-1.57e-06,0.0,0 STARLINK-4609,1 53619U 22104AH  23273.94994262 -.00000157  00000-0  82068-5 0  9998,2 53619  53.2144 272.7997 0001564  79.6629 280.4539 15.08842322 60599,6917.873,95.437,540.82,538.656,0.0
53619.0,STARLINK-4609,PAYLOAD,2023-10-01 09:55:36,15.08842343,0.0001592,53.2152,270.717,99.7581,260.3591,9.385e-06,-1.39e-06,0.0,0 STARLINK-4609,1 53619U 22104AH  23274.41362086 -.00000139  00000-0  93850-5 0  9995,2 53619  53.2152 270.7170 0001592  99.7581 260.3591 15.08842343 61230,6917.873,95.437,540.84,538.637,0.0
53619.0,STARLINK-4609,PAYLOAD,2023-10-02 00:14:05,15.08830814,0.0001529,53.2151,268.0393,99.4832,260.6333,-0.00010798,-2.006e-05,0.0,0 STARLINK-4609,1 53619U 22104AH  23275.00978804 -.00002006  00000-0 -10798-3 0  9996,2 53619  53.2151 268.0393 0001529  99.4832 260.6333 15.08830814 60755,6917.908,95.438,540.831,538.716,0.0
53619.0,STARLINK-4609,PAYLOAD,2023-10-02 06:35:38,15.08836843,0.0001568,53.2171,266.8546,93.0045,267.1127,-2.6676e-05,-7.12e-06,0.0,0 STARLINK-4609,1 53619U 22104AH  23275.27474972 -.00000712  00000-0 -26676-4 0  9997,2 53619  53.2171 266.8546 0001568  93.0045 267.1127 15.08836843 61361,6917.89,95.438,540.84,538.67,0.0
